{
  "type": "FeatureCollection",
  "features": [
    {
      "type": "Feature",
      "properties": {
        "norad_id": 36083,
        "name": "IRIDIUM 33 DEB",
        "group": "iridium-33-debris",
        "lat": -80.48957485210545,
        "lon": -122.32087389813238,
        "alt_km": 739.9080163972458,
        "timestamp": "2025-12-10T04:57:30.007574+00:00",
        "meta_object_name": "IRIDIUM 33 DEB",
        "meta_object_id": "1997-051VQ",
        "meta_epoch": "2025-12-06T21:32:26.892672",
        "meta_mean_motion": 14.43175138,
        "meta_eccentricity": 0.00247889,
        "meta_inclination": 86.3442,
        "meta_ra_of_asc_node": 36.6683,
        "meta_arg_of_pericenter": 243.3344,
        "meta_mean_anomaly": 116.5319,
        "meta_ephemeris_type": 0,
        "meta_classification_type": "U",
        "meta_norad_cat_id": 36083,
        "meta_element_set_no": 999,
        "meta_rev_at_epoch": 85365,
        "meta_bstar": 0.00098432537,
        "meta_mean_motion_dot": 3.337e-05,
        "meta_mean_motion_ddot": 0,
        "tle_line1": "1 36083U 97051VQ  25340.89753348  .00003337  00000+0  98433-3 0  9998",
        "tle_line2": "2 36083  86.3442  36.6683 0024788 243.3344 116.5319 14.43175138853653"
      },
      "geometry": {
        "type": "Point",
        "coordinates": [
          -122.32087389813238,
          -80.48957485210545
        ]
      }
    },
    {
      "type": "Feature",
      "properties": {
        "norad_id": 36390,
        "name": "IRIDIUM 33 DEB",
        "group": "iridium-33-debris",
        "lat": 17.00831526990897,
        "lon": 119.41423277326884,
        "alt_km": 629.5658832540003,
        "timestamp": "2025-12-10T04:57:30.007584+00:00",
        "meta_object_name": "IRIDIUM 33 DEB",
        "meta_object_id": "1997-051VU",
        "meta_epoch": "2025-12-08T14:44:10.068288",
        "meta_mean_motion": 14.7351876,
        "meta_eccentricity": 0.0029895,
        "meta_inclination": 86.2903,
        "meta_ra_of_asc_node": 301.2813,
        "meta_arg_of_pericenter": 175.8211,
        "meta_mean_anomaly": 184.3262,
        "meta_ephemeris_type": 0,
        "meta_classification_type": "U",
        "meta_norad_cat_id": 36390,
        "meta_element_set_no": 999,
        "meta_rev_at_epoch": 66201,
        "meta_bstar": 0.0016262,
        "meta_mean_motion_dot": 0.00010673,
        "meta_mean_motion_ddot": 0,
        "tle_line1": "1 36390U 97051VU  25342.61400542  .00010673  00000+0  16262-2 0  9996",
        "tle_line2": "2 36390  86.2903 301.2813 0029895 175.8211 184.3262 14.73518760662010"
      },
      "geometry": {
        "type": "Point",
        "coordinates": [
          119.41423277326884,
          17.00831526990897
        ]
      }
    },
    {
      "type": "Feature",
      "properties": {
        "norad_id": 36483,
        "name": "IRIDIUM 33 DEB",
        "group": "iridium-33-debris",
        "lat": 40.63090213314016,
        "lon": 56.68796800558999,
        "alt_km": 736.455811902486,
        "timestamp": "2025-12-10T04:57:30.007594+00:00",
        "meta_object_name": "IRIDIUM 33 DEB",
        "meta_object_id": "1997-051VZ",
        "meta_epoch": "2025-12-08T11:14:38.908896",
        "meta_mean_motion": 14.45787314,
        "meta_eccentricity": 0.00108756,
        "meta_inclination": 86.3794,
        "meta_ra_of_asc_node": 54.3174,
        "meta_arg_of_pericenter": 137.8715,
        "meta_mean_anomaly": 222.3325,
        "meta_ephemeris_type": 0,
        "meta_classification_type": "U",
        "meta_norad_cat_id": 36483,
        "meta_element_set_no": 999,
        "meta_rev_at_epoch": 65084,
        "meta_bstar": 0.00090663472,
        "meta_mean_motion_dot": 3.235e-05,
        "meta_mean_motion_ddot": 0,
        "tle_line1": "1 36483U 97051VZ  25342.46850589  .00003235  00000+0  90663-3 0  9996",
        "tle_line2": "2 36483  86.3794  54.3174 0010875 137.8715 222.3325 14.45787314650846"
      },
      "geometry": {
        "type": "Point",
        "coordinates": [
          56.68796800558999,
          40.63090213314016
        ]
      }
    },
    {
      "type": "Feature",
      "properties": {
        "norad_id": 36490,
        "name": "IRIDIUM 33 DEB",
        "group": "iridium-33-debris",
        "lat": 21.32104150761152,
        "lon": 13.026918508469146,
        "alt_km": 640.1071807252738,
        "timestamp": "2025-12-10T04:57:30.007604+00:00",
        "meta_object_name": "IRIDIUM 33 DEB",
        "meta_object_id": "1997-051WG",
        "meta_epoch": "2025-12-09T19:05:59.977248",
        "meta_mean_motion": 14.76091119,
        "meta_eccentricity": 0.0005554,
        "meta_inclination": 86.3657,
        "meta_ra_of_asc_node": 11.7906,
        "meta_arg_of_pericenter": 90.0587,
        "meta_mean_anomaly": 270.1268,
        "meta_ephemeris_type": 0,
        "meta_classification_type": "U",
        "meta_norad_cat_id": 36490,
        "meta_element_set_no": 999,
        "meta_rev_at_epoch": 86441,
        "meta_bstar": 0.0023534,
        "meta_mean_motion_dot": 0.00016282,
        "meta_mean_motion_ddot": 0,
        "tle_line1": "1 36490U 97051WG  25343.79583307  .00016282  00000+0  23534-2 0  9990",
        "tle_line2": "2 36490  86.3657  11.7906 0005554  90.0587 270.1268 14.76091119864419"
      },
      "geometry": {
        "type": "Point",
        "coordinates": [
          13.026918508469146,
          21.32104150761152
        ]
      }
    },
    {
      "type": "Feature",
      "properties": {
        "norad_id": 36493,
        "name": "IRIDIUM 33 DEB",
        "group": "iridium-33-debris",
        "lat": 43.732418407072835,
        "lon": 16.29910855652015,
        "alt_km": 666.4857546777066,
        "timestamp": "2025-12-10T04:57:30.007615+00:00",
        "meta_object_name": "IRIDIUM 33 DEB",
        "meta_object_id": "1997-051WK",
        "meta_epoch": "2025-12-09T18:55:29.176896",
        "meta_mean_motion": 14.65174136,
        "meta_eccentricity": 0.0010573,
        "meta_inclination": 86.3573,
        "meta_ra_of_asc_node": 12.9906,
        "meta_arg_of_pericenter": 14.947,
        "meta_mean_anomaly": 345.2053,
        "meta_ephemeris_type": 0,
        "meta_classification_type": "U",
        "meta_norad_cat_id": 36493,
        "meta_element_set_no": 999,
        "meta_rev_at_epoch": 74475,
        "meta_bstar": 0.0019764,
        "meta_mean_motion_dot": 0.00010665,
        "meta_mean_motion_ddot": 0,
        "tle_line1": "1 36493U 97051WK  25343.78853214  .00010665  00000+0  19764-2 0  9998",
        "tle_line2": "2 36493  86.3573  12.9906 0010573  14.9470 345.2053 14.65174136744754"
      },
      "geometry": {
        "type": "Point",
        "coordinates": [
          16.29910855652015,
          43.732418407072835
        ]
      }
    },
    {
      "type": "Feature",
      "properties": {
        "norad_id": 37548,
        "name": "IRIDIUM 33 DEB",
        "group": "iridium-33-debris",
        "lat": -2.262498478250136,
        "lon": 44.326589604453694,
        "alt_km": 741.6975323331326,
        "timestamp": "2025-12-10T04:57:30.007625+00:00",
        "meta_object_name": "IRIDIUM 33 DEB",
        "meta_object_id": "1997-051XH",
        "meta_epoch": "2025-12-08T21:31:39.163584",
        "meta_mean_motion": 14.51252553,
        "meta_eccentricity": 0.0025132,
        "meta_inclination": 86.3517,
        "meta_ra_of_asc_node": 45.0407,
        "meta_arg_of_pericenter": 201.7474,
        "meta_mean_anomaly": 158.2667,
        "meta_ephemeris_type": 0,
        "meta_classification_type": "U",
        "meta_norad_cat_id": 37548,
        "meta_element_set_no": 999,
        "meta_rev_at_epoch": 65476,
        "meta_bstar": 0.0012917,
        "meta_mean_motion_dot": 5.175e-05,
        "meta_mean_motion_ddot": 0,
        "tle_line1": "1 37548U 97051XH  25342.89698106  .00005175  00000+0  12917-2 0  9991",
        "tle_line2": "2 37548  86.3517  45.0407 0025132 201.7474 158.2667 14.51252553654763"
      },
      "geometry": {
        "type": "Point",
        "coordinates": [
          44.326589604453694,
          -2.262498478250136
        ]
      }
    },
    {
      "type": "Feature",
      "properties": {
        "norad_id": 37550,
        "name": "IRIDIUM 33 DEB",
        "group": "iridium-33-debris",
        "lat": -68.74529554690639,
        "lon": -145.62674734948703,
        "alt_km": 680.1894231055085,
        "timestamp": "2025-12-10T04:57:30.007636+00:00",
        "meta_object_name": "IRIDIUM 33 DEB",
        "meta_object_id": "1997-051XK",
        "meta_epoch": "2025-12-06T21:15:18.690336",
        "meta_mean_motion": 14.67089693,
        "meta_eccentricity": 0.00053572,
        "meta_inclination": 86.377,
        "meta_ra_of_asc_node": 26.47,
        "meta_arg_of_pericenter": 124.88,
        "meta_mean_anomaly": 235.2918,
        "meta_ephemeris_type": 0,
        "meta_classification_type": "U",
        "meta_norad_cat_id": 37550,
        "meta_element_set_no": 999,
        "meta_rev_at_epoch": 86247,
        "meta_bstar": 0.0020360196,
        "meta_mean_motion_dot": 0.00011461,
        "meta_mean_motion_ddot": 0,
        "tle_line1": "1 37550U 97051XK  25340.88563299  .00011461  00000+0  20360-2 0  9991",
        "tle_line2": "2 37550  86.3770  26.4700 0005357 124.8800 235.2918 14.67089693862475"
      },
      "geometry": {
        "type": "Point",
        "coordinates": [
          -145.62674734948703,
          -68.74529554690639
        ]
      }
    }
  ]
}